CCSDS_OMM_VERS = 2.0
CREATION_DATE  = 
ORIGINATOR     = 

OBJECT_NAME    = ALOS-2
OBJECT_ID      = 2014-029A
CENTER_NAME    = EARTH
REF_FRAME      = TEME
TIME_SYSTEM    = UTC
MEAN_ELEMENT_THEORY = SGP/SGP4

EPOCH          = 2026-03-12T06:55:52.387392
MEAN_MOTION    = 14.79517919
ECCENTRICITY   = .00014715
INCLINATION    = 97.9185
RA_OF_ASC_NODE = 169.8479
ARG_OF_PERICENTER = 96.9587
MEAN_ANOMALY   = 263.1792

EPHEMERIS_TYPE = 0
CLASSIFICATION_TYPE = U
NORAD_CAT_ID   = 39766
ELEMENT_SET_NO = 999
REV_AT_EPOCH   = 63725
BSTAR          = .43047654E-3
MEAN_MOTION_DOT = .3168E-4
MEAN_MOTION_DDOT = 0

CCSDS_OMM_VERS = 2.0
CREATION_DATE  = 
ORIGINATOR     = 

OBJECT_NAME    = YAOGAN-29
OBJECT_ID      = 2015-069A
CENTER_NAME    = EARTH
REF_FRAME      = TEME
TIME_SYSTEM    = UTC
MEAN_ELEMENT_THEORY = SGP/SGP4

EPOCH          = 2026-03-12T06:58:57.707616
MEAN_MOTION    = 14.82998618
ECCENTRICITY   = .00017202
INCLINATION    = 98.0144
RA_OF_ASC_NODE = 99.7277
ARG_OF_PERICENTER = 31.5860
MEAN_ANOMALY   = 328.5456

EPHEMERIS_TYPE = 0
CLASSIFICATION_TYPE = U
NORAD_CAT_ID   = 41038
ELEMENT_SET_NO = 999
REV_AT_EPOCH   = 55626
BSTAR          = .90767629E-4
MEAN_MOTION_DOT = .683E-5
MEAN_MOTION_DDOT = 0

CCSDS_OMM_VERS = 2.0
CREATION_DATE  = 
ORIGINATOR     = 

OBJECT_NAME    = ASTRO-H (HITOMI)
OBJECT_ID      = 2016-012A
CENTER_NAME    = EARTH
REF_FRAME      = TEME
TIME_SYSTEM    = UTC
MEAN_ELEMENT_THEORY = SGP/SGP4

EPOCH          = 2026-03-11T22:44:39.920064
MEAN_MOTION    = 15.10023348
ECCENTRICITY   = .00097573
INCLINATION    = 31.0006
RA_OF_ASC_NODE = 341.9769
ARG_OF_PERICENTER = 353.9535
MEAN_ANOMALY   = 6.0985

EPHEMERIS_TYPE = 0
CLASSIFICATION_TYPE = U
NORAD_CAT_ID   = 41337
ELEMENT_SET_NO = 999
REV_AT_EPOCH   = 55257
BSTAR          = .20065392E-3
MEAN_MOTION_DOT = .3441E-4
MEAN_MOTION_DDOT = 0

CCSDS_OMM_VERS = 2.0
CREATION_DATE  = 
ORIGINATOR     = 

OBJECT_NAME    = HXMT (HUIYAN)
OBJECT_ID      = 2017-034A
CENTER_NAME    = EARTH
REF_FRAME      = TEME
TIME_SYSTEM    = UTC
MEAN_ELEMENT_THEORY = SGP/SGP4

EPOCH          = 2026-03-12T06:41:33.498816
MEAN_MOTION    = 15.17507493
ECCENTRICITY   = .00331708
INCLINATION    = 43.0160
RA_OF_ASC_NODE = 2.2782
ARG_OF_PERICENTER = 251.7462
MEAN_ANOMALY   = 107.9775

EPHEMERIS_TYPE = 0
CLASSIFICATION_TYPE = U
NORAD_CAT_ID   = 42758
ELEMENT_SET_NO = 999
REV_AT_EPOCH   = 48293
BSTAR          = .37813927E-3
MEAN_MOTION_DOT = .7594E-4
MEAN_MOTION_DDOT = 0

CCSDS_OMM_VERS = 2.0
CREATION_DATE  = 
ORIGINATOR     = 

OBJECT_NAME    = SAOCOM 1A
OBJECT_ID      = 2018-076A
CENTER_NAME    = EARTH
REF_FRAME      = TEME
TIME_SYSTEM    = UTC
MEAN_ELEMENT_THEORY = SGP/SGP4

EPOCH          = 2026-03-12T06:12:03.593088
MEAN_MOTION    = 14.82142000
ECCENTRICITY   = .00014268
INCLINATION    = 97.8898
RA_OF_ASC_NODE = 259.3941
ARG_OF_PERICENTER = 88.7129
MEAN_ANOMALY   = 271.4248

EPHEMERIS_TYPE = 0
CLASSIFICATION_TYPE = U
NORAD_CAT_ID   = 43641
ELEMENT_SET_NO = 999
REV_AT_EPOCH   = 40174
BSTAR          = .97003142E-4
MEAN_MOTION_DOT = .72E-5
MEAN_MOTION_DDOT = 0

CCSDS_OMM_VERS = 2.0
CREATION_DATE  = 
ORIGINATOR     = 

OBJECT_NAME    = H-2A R/B
OBJECT_ID      = 2018-084L
CENTER_NAME    = EARTH
REF_FRAME      = TEME
TIME_SYSTEM    = UTC
MEAN_ELEMENT_THEORY = SGP/SGP4

EPOCH          = 2026-03-12T03:14:02.046624
MEAN_MOTION    = 15.41463122
ECCENTRICITY   = .0025225
INCLINATION    = 98.8733
RA_OF_ASC_NODE = 289.0453
ARG_OF_PERICENTER = 17.0298
MEAN_ANOMALY   = 343.1785

EPHEMERIS_TYPE = 0
CLASSIFICATION_TYPE = U
NORAD_CAT_ID   = 43682
ELEMENT_SET_NO = 999
REV_AT_EPOCH   = 40615
BSTAR          = .50751856E-3
MEAN_MOTION_DOT = .21414E-3
MEAN_MOTION_DDOT = 0

CCSDS_OMM_VERS = 2.0
CREATION_DATE  = 
ORIGINATOR     = 

OBJECT_NAME    = SAOCOM 1B
OBJECT_ID      = 2020-059A
CENTER_NAME    = EARTH
REF_FRAME      = TEME
TIME_SYSTEM    = UTC
MEAN_ELEMENT_THEORY = SGP/SGP4

EPOCH          = 2026-03-12T06:57:03.415968
MEAN_MOTION    = 14.82151949
ECCENTRICITY   = .000142
INCLINATION    = 97.8898
RA_OF_ASC_NODE = 258.5226
ARG_OF_PERICENTER = 86.3895
MEAN_ANOMALY   = 273.7481

EPHEMERIS_TYPE = 0
CLASSIFICATION_TYPE = U
NORAD_CAT_ID   = 46265
ELEMENT_SET_NO = 999
REV_AT_EPOCH   = 29913
BSTAR          = .10892807E-3
MEAN_MOTION_DOT = .815E-5
MEAN_MOTION_DDOT = 0

CCSDS_OMM_VERS = 2.0
CREATION_DATE  = 
ORIGINATOR     = 

OBJECT_NAME    = CSS (TIANHE)
OBJECT_ID      = 2021-035A
CENTER_NAME    = EARTH
REF_FRAME      = TEME
TIME_SYSTEM    = UTC
MEAN_ELEMENT_THEORY = SGP/SGP4

EPOCH          = 2026-03-12T05:04:02.976384
MEAN_MOTION    = 15.60804947
ECCENTRICITY   = .00067688
INCLINATION    = 41.4662
RA_OF_ASC_NODE = 192.8178
ARG_OF_PERICENTER = 286.7169
MEAN_ANOMALY   = 73.2927

EPHEMERIS_TYPE = 0
CLASSIFICATION_TYPE = U
NORAD_CAT_ID   = 48274
ELEMENT_SET_NO = 999
REV_AT_EPOCH   = 27800
BSTAR          = .31716932E-3
MEAN_MOTION_DOT = .26987E-3
MEAN_MOTION_DDOT = 0

CCSDS_OMM_VERS = 2.0
CREATION_DATE  = 
ORIGINATOR     = 

OBJECT_NAME    = COSMOS 2550
OBJECT_ID      = 2021-056A
CENTER_NAME    = EARTH
REF_FRAME      = TEME
TIME_SYSTEM    = UTC
MEAN_ELEMENT_THEORY = SGP/SGP4

EPOCH          = 2026-03-12T07:42:36.293760
MEAN_MOTION    = 15.33837480
ECCENTRICITY   = .00083703
INCLINATION    = 67.1461
RA_OF_ASC_NODE = 32.9714
ARG_OF_PERICENTER = 269.5659
MEAN_ANOMALY   = 90.4536

EPHEMERIS_TYPE = 0
CLASSIFICATION_TYPE = U
NORAD_CAT_ID   = 48865
ELEMENT_SET_NO = 999
REV_AT_EPOCH   = 26386
BSTAR          = .52004E-7
MEAN_MOTION_DOT = -.19E-5
MEAN_MOTION_DDOT = 0

CCSDS_OMM_VERS = 2.0
CREATION_DATE  = 
ORIGINATOR     = 

OBJECT_NAME    = CZ-2C R/B
OBJECT_ID      = 2022-058K
CENTER_NAME    = EARTH
REF_FRAME      = TEME
TIME_SYSTEM    = UTC
MEAN_ELEMENT_THEORY = SGP/SGP4

EPOCH          = 2026-03-12T05:05:54.743424
MEAN_MOTION    = 15.54430524
ECCENTRICITY   = .00421108
INCLINATION    = 50.1892
RA_OF_ASC_NODE = 305.3108
ARG_OF_PERICENTER = 211.4951
MEAN_ANOMALY   = 148.3498

EPHEMERIS_TYPE = 0
CLASSIFICATION_TYPE = U
NORAD_CAT_ID   = 52794
ELEMENT_SET_NO = 999
REV_AT_EPOCH   = 21052
BSTAR          = .4977205E-3
MEAN_MOTION_DOT = .34325E-3
MEAN_MOTION_DDOT = 0

CCSDS_OMM_VERS = 2.0
CREATION_DATE  = 
ORIGINATOR     = 

OBJECT_NAME    = CZ-2C R/B
OBJECT_ID      = 2022-132E
CENTER_NAME    = EARTH
REF_FRAME      = TEME
TIME_SYSTEM    = UTC
MEAN_ELEMENT_THEORY = SGP/SGP4

EPOCH          = 2026-03-11T23:57:36.454176
MEAN_MOTION    = 15.62072161
ECCENTRICITY   = .00204405
INCLINATION    = 97.2966
RA_OF_ASC_NODE = 74.3851
ARG_OF_PERICENTER = 83.8448
MEAN_ANOMALY   = 276.5138

EPHEMERIS_TYPE = 0
CLASSIFICATION_TYPE = U
NORAD_CAT_ID   = 54039
ELEMENT_SET_NO = 999
REV_AT_EPOCH   = 19073
BSTAR          = .51693366E-3
MEAN_MOTION_DOT = .45731E-3
MEAN_MOTION_DDOT = 0

CCSDS_OMM_VERS = 2.0
CREATION_DATE  = 
ORIGINATOR     = 

OBJECT_NAME    = GSLV R/B
OBJECT_ID      = 2022-138AN
CENTER_NAME    = EARTH
REF_FRAME      = TEME
TIME_SYSTEM    = UTC
MEAN_ELEMENT_THEORY = SGP/SGP4

EPOCH          = 2026-03-12T06:16:18.102432
MEAN_MOTION    = 14.96795723
ECCENTRICITY   = .00232612
INCLINATION    = 87.3873
RA_OF_ASC_NODE = 165.5013
ARG_OF_PERICENTER = 137.9057
MEAN_ANOMALY   = 222.3967

EPHEMERIS_TYPE = 0
CLASSIFICATION_TYPE = U
NORAD_CAT_ID   = 54149
ELEMENT_SET_NO = 999
REV_AT_EPOCH   = 18431
BSTAR          = .36538821E-3
MEAN_MOTION_DOT = .4231E-4
MEAN_MOTION_DDOT = 0

