ALOS-2                  
1 39766U 14029A   26071.28880078  .00003168  00000+0  43048-3 0  9993
2 39766  97.9185 169.8479 0001471  96.9587 263.1792 14.79517919637259
YAOGAN-29               
1 41038U 15069A   26071.29094569  .00000683  00000+0  90768-4 0  9997
2 41038  98.0144  99.7277 0001720  31.5860 328.5456 14.82998618556261
ASTRO-H (HITOMI)        
1 41337U 16012A   26070.94768426  .00003441  00000+0  20065-3 0  9996
2 41337  31.0006 341.9769 0009757 353.9535   6.0985 15.10023348552579
HXMT (HUIYAN)           
1 42758U 17034A   26071.27885994  .00007594  00000+0  37814-3 0  9999
2 42758  43.0160   2.2782 0033170 251.7462 107.9775 15.17507493482938
SAOCOM 1A               
1 43641U 18076A   26071.25837492  .00000720  00000+0  97003-4 0  9997
2 43641  97.8898 259.3941 0001426  88.7129 271.4248 14.82142000401746
H-2A R/B                
1 43682U 18084L   26071.13474591  .00021414  00000+0  50752-3 0  9997
2 43682  98.8733 289.0453 0025225  17.0298 343.1785 15.41463122406153
SAOCOM 1B               
1 46265U 20059A   26071.28962287  .00000815  00000+0  10893-3 0  9996
2 46265  97.8898 258.5226 0001420  86.3895 273.7481 14.82151949299130
CSS (TIANHE)            
1 48274U 21035A   26071.21114556  .00026987  00000+0  31717-3 0  9990
2 48274  41.4662 192.8178 0006768 286.7169  73.2927 15.60804947278003
COSMOS 2550             
1 48865U 21056A   26071.32125340 -.00000190  00000+0  52004-7 0  9999
2 48865  67.1461  32.9714 0008370 269.5659  90.4536 15.33837480263868
CZ-2C R/B               
1 52794U 22058K   26071.21243916  .00034325  00000+0  49772-3 0  9996
2 52794  50.1892 305.3108 0042110 211.4951 148.3498 15.54430524210525
CZ-2C R/B               
1 54039U 22132E   26070.99833859  .00045731  00000+0  51693-3 0  9996
2 54039  97.2966  74.3851 0020440  83.8448 276.5138 15.62072161190738
GSLV R/B                
1 54149U 22138AN  26071.26132063  .00004231  00000+0  36539-3 0  9996
2 54149  87.3873 165.5013 0023261 137.9057 222.3967 14.96795723184319
